{
    "satellites": [
        {
            "name": "starlink338",
            "title": "Starlink-338 (G6-99)",
            "tle": [
                "1 67174C 25303M   26007.11368056 -.00009569  00000+0 -16254-3 0    74",
                "2 67174  42.9990 303.2927 0001245 264.0242  46.5098 15.50591096    12"
            ],
            "stdMag": 5,
            "noradId": "67174",
            "tleUrl": "http://celestrak.org/NORAD/elements/supplemental/sup-gp.php?FILE=starlink&FORMAT=tle",
            "launchDate": "2025-12-17T13:42:10.000Z",
            "active": true,
            "batch": [
                {
                    "noradId": "67174",
                    "tle": [
                        "1 67174C 25303M   26007.11368056 -.00009569  00000+0 -16254-3 0    74",
                        "2 67174  42.9990 303.2927 0001245 264.0242  46.5098 15.50591096    12"
                    ]
                },
                {
                    "noradId": "67173",
                    "tle": [
                        "1 67173C 25303L   26007.11437500 -.00010363  00000+0 -17605-3 0    79",
                        "2 67173  42.9990 303.2921 0001245 262.3035  50.8097 15.50590485    14"
                    ]
                },
                {
                    "noradId": "67167",
                    "tle": [
                        "1 67167C 25303E   26007.10812500 -.00006847  00000+0 -11630-3 0    72",
                        "2 67167  42.9990 303.3444 0001224 262.2306   9.6418 15.50588348    19"
                    ]
                },
                {
                    "noradId": "67166",
                    "tle": [
                        "1 67166C 25303D   26007.10604167 -.00018350  00000+0 -31174-3 0    76",
                        "2 67166  42.9990 303.3664 0001209 267.8490 348.6742 15.50596780    15"
                    ]
                },
                {
                    "noradId": "67165",
                    "tle": [
                        "1 67165C 25303C   26007.11298611 -.00008324  00000+0 -14140-3 0    73",
                        "2 67165  42.9991 303.3221 0001423 249.8506  46.7176 15.50589918    12"
                    ]
                },
                {
                    "noradId": "67164",
                    "tle": [
                        "1 67164C 25303B   26007.11159722 -.00700670  00000+0 -11994-1 0    76",
                        "2 67164  42.9991 303.3369 0001307 238.6708  47.5052 15.51062866    16"
                    ]
                }
            ]
        }
    ],
    "config": {}
}